SENTINEL-5P             
1 42969U 17064A   26201.82364026  .00000021  00000+0  30746-4 0  9996
2 42969  98.7929 143.7171 0001181  92.5876 267.5435 14.19523916454330
