{"fetched_at":"2026-07-21T07:07:11.422Z","source":"https://celestrak.org/NORAD/elements/gp.php?NAME=SENTINEL&FORMAT=JSON","constellation":"sentinel-5p","records":[{"OBJECT_NAME":"SENTINEL-5P","OBJECT_ID":"2017-064A","EPOCH":"2026-07-20T19:46:02.518464","CLASSIFICATION_TYPE":"U","MEAN_MOTION":14.19523916,"ECCENTRICITY":0.00011819,"INCLINATION":98.7929,"RA_OF_ASC_NODE":143.7171,"ARG_OF_PERICENTER":92.5876,"MEAN_ANOMALY":267.5435,"EPHEMERIS_TYPE":0,"NORAD_CAT_ID":42969,"ELEMENT_SET_NO":999,"REV_AT_EPOCH":45433,"BSTAR":0.00003074592,"MEAN_MOTION_DOT":2.1e-7,"MEAN_MOTION_DDOT":0}]}
